NORAD_CAT_ID,OBJECT_NAME,OBJECT_TYPE,EPOCH,MEAN_MOTION,ECCENTRICITY,INCLINATION,RA_OF_ASC_NODE,ARG_OF_PERICENTER,MEAN_ANOMALY,BSTAR,MEAN_MOTION_DOT,MEAN_MOTION_DDOT,TLE_LINE0,TLE_LINE1,TLE_LINE2,SEMIMAJOR_AXIS,PERIOD,APOGEE,PERIGEE,DECAYED
55753.0,STARLINK-5617,PAYLOAD,2023-04-29 14:00:01,15.0909268,0.0003232,70.0028,359.6896,265.623,308.3142,-0.061774,-0.00908519,0.0,0 STARLINK-5617,1 55753U 23028N   23119.58335648 -.00908519  00000-0 -61774-1 0  9998,2 55753  70.0028 359.6896 0003232 265.6230 308.3142 15.09092680  1309,6917.108,95.422,541.209,536.738,0.0
55753.0,STARLINK-5617,PAYLOAD,2023-04-29 22:00:00,15.08424028,0.0003218,70.0029,358.8356,271.3794,312.5023,-0.062549,-0.00903568,0.0,0 STARLINK-5617,1 55753U 23028N   23119.91667824 -.00903568  00000-0 -62549-1 0  9999,2 55753  70.0029 358.8356 0003218 271.3794 312.5023 15.08424028  9537,6919.152,95.464,543.244,538.791,0.0
55753.0,STARLINK-5617,PAYLOAD,2023-04-30 14:00:01,15.07142368,0.0003186,70.003,357.1301,264.8202,336.6842,-0.065806,-0.0091687,0.0,0 STARLINK-5617,1 55753U 23028N   23120.58334491 -.00916870  00000-0 -65806-1 0  9994,2 55753  70.0030 357.1301 0003186 264.8202 336.6842 15.07142368  1302,6923.074,95.545,547.145,542.734,0.0
55753.0,STARLINK-5617,PAYLOAD,2023-04-30 22:00:00,15.06461466,0.0003156,70.003,356.2786,271.2538,337.9157,-0.065134,-0.0089272,0.0,0 STARLINK-5617,1 55753U 23028N   23120.91667824 -.00892720  00000-0 -65134-1 0  9991,2 55753  70.0030 356.2786 0003156 271.2538 337.9157 15.06461466  9684,6925.16,95.588,549.211,544.84,0.0
55753.0,STARLINK-5617,PAYLOAD,2023-05-01 14:00:01,15.05184828,0.0003203,70.003,354.5783,267.6523,354.4456,-0.069436,-0.00917455,0.0,0 STARLINK-5617,1 55753U 23028N   23121.58334491 -.00917455  00000-0 -69436-1 0  9998,2 55753  70.0030 354.5783 0003203 267.6523 354.4456 15.05184828  9788,6929.075,95.669,553.16,548.721,0.0
55753.0,STARLINK-5617,PAYLOAD,2023-05-01 22:00:00,15.04504093,0.0003165,70.0029,353.7295,272.9311,354.4836,-0.068365,-0.00889086,0.0,0 STARLINK-5617,1 55753U 23028N   23121.91667824 -.00889086  00000-0 -68365-1 0  9992,2 55753  70.0029 353.7295 0003165 272.9311 354.4836 15.04504093  1307,6931.165,95.713,555.224,550.837,0.0
55753.0,STARLINK-5617,PAYLOAD,2023-05-02 06:00:00,15.03898229,0.0003141,70.0026,352.8814,273.7485,358.1668,-0.076275,-0.00980663,0.0,0 STARLINK-5617,1 55753U 23028N   23122.25001157 -.00980663  00000-0 -76275-1 0  9993,2 55753  70.0026 352.8814 0003141 273.7485 358.1668 15.03898229  9887,6933.027,95.751,557.069,552.714,0.0
55753.0,STARLINK-5617,PAYLOAD,2023-05-02 14:00:01,15.03230804,0.0003184,70.0028,352.0344,267.8259,7.8863,-0.073519,-0.009215,0.0,0 STARLINK-5617,1 55753U 23028N   23122.58335648 -.00921500  00000-0 -73519-1 0  9997,2 55753  70.0028 352.0344 0003184 267.8259   7.8863 15.03230804  9939,6935.079,95.794,559.152,554.736,0.0
55753.0,STARLINK-5617,PAYLOAD,2023-05-02 22:00:00,15.02546472,0.000314,70.0026,351.188,272.9073,5.7118,-0.071859,-0.00887067,0.0,0 STARLINK-5617,1 55753U 23028N   23122.91667824 -.00887067  00000-0 -71859-1 0  9992,2 55753  70.0026 351.1880 0003140 272.9073   5.7118 15.02546472  1308,6937.184,95.837,561.228,556.871,0.0
55753.0,STARLINK-5617,PAYLOAD,2023-05-03 14:00:01,15.01276668,0.000314,70.0024,349.498,264.8356,17.3241,-0.077791,-0.00925434,0.0,0 STARLINK-5617,1 55753U 23028N   23123.58334491 -.00925434  00000-0 -77791-1 0  9999,2 55753  70.0024 349.4980 0003140 264.8356  17.3241 15.01276668 10088,6941.095,95.918,565.14,560.781,0.0
55753.0,STARLINK-5617,PAYLOAD,2023-05-03 22:00:00,15.00587613,0.000308,70.0023,348.6541,272.6593,10.1247,-0.075256,-0.00882446,0.0,0 STARLINK-5617,1 55753U 23028N   23123.91667824 -.00882446  00000-0 -75256-1 0  9994,2 55753  70.0023 348.6541 0003080 272.6593  10.1247 15.00587613  1300,6943.22,95.962,567.224,562.947,0.0
55753.0,STARLINK-5617,PAYLOAD,2023-05-04 14:00:01,14.99281761,0.0002976,70.002,346.969,269.0005,12.7019,0.0023069,0.00028233,0.0,0 STARLINK-5617,1 55753U 23028N   23124.58335648  .00028233  00000-0  23069-2 0  9994,2 55753  70.0020 346.9690 0002976 269.0005  12.7019 14.99281761 10233,6947.251,96.046,571.184,567.049,0.0
55753.0,STARLINK-5617,PAYLOAD,2023-05-04 22:00:01,14.99284354,0.0003021,70.002,346.127,274.8342,5.5102,0.00087567,0.00010633,0.0,0 STARLINK-5617,1 55753U 23028N   23124.91668981  .00010633  00000-0  87567-3 0  9999,2 55753  70.0020 346.1270 0003021 274.8342   5.5102 14.99284354  1301,6947.243,96.046,571.207,567.009,0.0
55753.0,STARLINK-5617,PAYLOAD,2023-05-05 06:00:00,14.99317157,0.0003075,70.0015,345.2854,273.2921,5.6242,-0.0039074,-0.00047603,0.0,0 STARLINK-5617,1 55753U 23028N   23125.25001157 -.00047603  00000-0 -39074-2 0  9991,2 55753  70.0015 345.2854 0003075 273.2921   5.6242 14.99317157 10335,6947.142,96.044,571.143,566.871,0.0
55753.0,STARLINK-5617,PAYLOAD,2023-05-05 14:00:01,14.99293632,0.0003111,70.0017,344.4436,266.9953,10.5674,0.0028315,0.00034718,0.0,0 STARLINK-5617,1 55753U 23028N   23125.58334491  .00034718  00000-0  28315-2 0  9994,2 55753  70.0017 344.4436 0003111 266.9953  10.5674 14.99293632 10389,6947.215,96.045,571.241,566.918,0.0
55753.0,STARLINK-5617,PAYLOAD,2023-05-05 22:00:00,14.9930361,0.0003158,70.0016,343.6017,272.2536,3.9666,-0.00093391,-0.00011503,0.0,0 STARLINK-5617,1 55753U 23028N   23125.91667824 -.00011503  00000-0 -93391-3 0  9996,2 55753  70.0016 343.6017 0003158 272.2536   3.9666 14.99303610  1309,6947.184,96.045,571.243,566.855,0.0
55753.0,STARLINK-5617,PAYLOAD,2023-05-06 06:00:00,14.99314016,0.000317,70.0012,342.7598,270.5895,4.2738,-0.0035891,-0.00043753,0.0,0 STARLINK-5617,1 55753U 23028N   23126.25001157 -.00043753  00000-0 -35891-2 0  9997,2 55753  70.0012 342.7598 0003170 270.5895   4.2738 14.99314016 10487,6947.152,96.044,571.219,566.814,0.0
55753.0,STARLINK-5617,PAYLOAD,2023-05-06 16:00:00,14.99321772,0.0003222,70.0015,341.7076,265.7422,97.4169,-0.0014112,-0.00017328,0.0,0 STARLINK-5617,1 55753U 23028N   23126.66667824 -.00017328  00000-0 -14112-2 0  9993,2 55753  70.0015 341.7076 0003222 265.7422  97.4169 14.99321772  1300,6947.128,96.043,571.231,566.754,0.0
55753.0,STARLINK-5617,PAYLOAD,2023-05-06 22:00:00,14.99309521,0.0003187,70.0014,341.0762,270.0098,2.1631,-0.00153,-0.00018769,0.0,0 STARLINK-5617,1 55753U 23028N   23126.91667824 -.00018769  00000-0 -15300-2 0  9991,2 55753  70.0014 341.0762 0003187 270.0098   2.1631 14.99309521 10587,6947.165,96.044,571.245,566.816,0.0
55753.0,STARLINK-5617,PAYLOAD,2023-05-07 14:00:01,14.99307817,0.0003197,70.0015,339.3925,263.2013,6.2589,0.0012533,0.00015278,0.0,0 STARLINK-5617,1 55753U 23028N   23127.58334491  .00015278  00000-0  12533-2 0  9991,2 55753  70.0015 339.3925 0003197 263.2013   6.2589 14.99307817 10685,6947.171,96.044,571.257,566.815,0.0
55753.0,STARLINK-5617,PAYLOAD,2023-05-07 22:00:00,14.99305267,0.0003173,70.0014,338.5506,269.798,358.323,-0.00086984,-0.00010722,0.0,0 STARLINK-5617,1 55753U 23028N   23127.91667824 -.00010722  00000-0 -86984-3 0  9990,2 55753  70.0014 338.5506 0003173 269.7980 358.3230 14.99305267  1308,6947.179,96.044,571.248,566.839,0.0
55753.0,STARLINK-5617,PAYLOAD,2023-05-08 00:00:38,14.99299251,0.000292,70.0004,338.3391,267.9053,92.1772,-7.498e-06,-1.86e-06,0.0,0 STARLINK-5617,1 55753U 23028N   23128.00044195 -.00000186  00000-0 -74980-5 0  9999,2 55753  70.0004 338.3391 0002920 267.9053  92.1772 14.99299251 10755,6947.197,96.045,571.091,567.034,0.0
55753.0,STARLINK-5617,PAYLOAD,2023-05-09 22:26:43,14.99301742,0.0002923,70.0002,333.4543,265.7416,94.3409,5.7505e-05,6.1e-06,0.0,0 STARLINK-5617,1 55753U 23028N   23129.93522354  .00000610  00000-0  57505-4 0  9993,2 55753  70.0002 333.4543 0002923 265.7416  94.3409 14.99301742 11043,6947.189,96.045,571.085,567.024,0.0
55753.0,STARLINK-5617,PAYLOAD,2023-05-10 19:15:39,14.99301444,0.0002864,70.0003,331.264,266.795,93.2881,-2.3114e-05,-3.77e-06,0.0,0 STARLINK-5617,1 55753U 23028N   23130.80254436 -.00000377  00000-0 -23114-4 0  9995,2 55753  70.0003 331.2640 0002864 266.7950  93.2881 14.99301444 11171,6947.19,96.045,571.045,567.066,0.0
55753.0,STARLINK-5617,PAYLOAD,2023-05-10 22:27:48,14.99301208,0.0002875,70.0003,330.9271,266.6763,93.4067,-2.4482e-05,-3.93e-06,0.0,0 STARLINK-5617,1 55753U 23028N   23130.93597810 -.00000393  00000-0 -24482-4 0  9992,2 55753  70.0003 330.9271 0002875 266.6763  93.4067 14.99301208 11198,6947.191,96.045,571.053,567.059,0.0
55753.0,STARLINK-5617,PAYLOAD,2023-05-11 19:16:44,14.99300305,0.000298,70.0,328.7367,268.6011,91.4808,-4.2443e-06,-1.46e-06,0.0,0 STARLINK-5617,1 55753U 23028N   23131.80329629 -.00000146  00000-0 -42443-5 0  9994,2 55753  70.0000 328.7367 0002980 268.6011  91.4808 14.99300305 11324,6947.194,96.045,571.129,566.989,0.0
55753.0,STARLINK-5617,PAYLOAD,2023-05-11 22:28:53,14.99301026,0.0002971,70.0002,328.4,269.3108,90.7711,4.4804e-06,-3.9e-07,0.0,0 STARLINK-5617,1 55753U 23028N   23131.93672929 -.00000039  00000-0  44804-5 0  9995,2 55753  70.0002 328.4000 0002971 269.3108  90.7711 14.99301026 11340,6947.192,96.045,571.121,566.993,0.0
55753.0,STARLINK-5617,PAYLOAD,2023-05-12 19:17:49,14.99299958,0.0003048,69.9999,326.2092,268.7289,91.3522,2.135e-05,1.67e-06,0.0,0 STARLINK-5617,1 55753U 23028N   23132.80404865  .00000167  00000-0  21350-4 0  9995,2 55753  69.9999 326.2092 0003048 268.7289  91.3522 14.99299958 11479,6947.195,96.045,571.177,566.942,0.0
55753.0,STARLINK-5617,PAYLOAD,2023-05-12 22:29:58,14.99293162,0.0003071,70.0,325.8719,267.9634,92.1173,0.00012734,1.464e-05,0.0,0 STARLINK-5617,1 55753U 23028N   23132.93748403  .00001464  00000-0  12734-3 0  9994,2 55753  70.0000 325.8719 0003071 267.9634  92.1173 14.99293162 11491,6947.216,96.045,571.214,566.947,0.0
55753.0,STARLINK-5617,PAYLOAD,2023-05-13 12:54:37,14.99301411,0.0003341,69.9999,324.3563,272.2566,87.8211,6.9121e-05,7.52e-06,0.0,0 STARLINK-5617,1 55753U 23028N   23133.53793062  .00000752  00000-0  69121-4 0  9994,2 55753  69.9999 324.3563 0003341 272.2566  87.8211 14.99301411 11580,6947.191,96.045,571.377,566.734,0.0
